norad_id,name,regime,epoch,line1,line2,inclination,eccentricity,mean_motion,raan,arg_pericenter,mean_anomaly
25049,SIRIUS 2 (GE-1E),GEO,24064.36103865,1 25049U 97071A   24064.36103865 -.00000229  00000-0  00000-0 0    10\,2 25049  10.5891  40.0574 0002673 350.8729 204.8138  0.99404786 95825,10.5891,0.0002673,0.99404786,40.0574,350.8729,204.8138
25049,SIRIUS 2 (GE-1E),GEO,24064.84725361,1 25049U 97071A   24064.84725361 -.00000225  00000-0  00000-0 0    10\,2 25049  10.5899  40.0540 0002701 351.1289  18.5582  0.99404581 95830,10.5899,0.0002701,0.99404581,40.054,351.1289,18.5582
25049,SIRIUS 2 (GE-1E),GEO,24065.42750726,1 25049U 97071A   24065.42750726 -.00000220  00000-0  00000-0 0    13\,2 25049  10.5909  40.0499 0002722 351.6171 225.7251  0.99404384 95839,10.5909,0.0002722,0.99404384,40.0499,351.6171,225.7251
25049,SIRIUS 2 (GE-1E),GEO,24065.84907441,1 25049U 97071A   24065.84907441 -.00000217  00000-0  00000+0 0  3352\,2 25049  10.5916  40.0470 0002751 351.9433  16.2636  0.99404214 95924,10.5916,0.0002751,0.99404214,40.047,351.9433,16.2636
25049,SIRIUS 2 (GE-1E),GEO,24066.41711522,1 25049U 97071A   24066.41711522 -.00000211  00000-0  00000-0 0    14\,2 25049  10.5926  40.0431 0002780 352.5246 218.9648  0.99403995 95843,10.5926,0.000278,0.99403995,40.0431,352.5246,218.9648
25049,SIRIUS 2 (GE-1E),GEO,24067.35882669,1 25049U 97071A   24067.35882669 -.00000200  00000-0  00000-0 0    17\,2 25049  10.5942  40.0366 0002826 353.3222 195.1743  0.99403670 95855,10.5942,0.0002826,0.9940367,40.0366,353.3222,195.1743
25049,SIRIUS 2 (GE-1E),GEO,24068.39910455,1 25049U 97071A   24068.39910455 -.00000188  00000-0  00000+0 0  3362\,2 25049  10.5961  40.0293 0002878 354.1977 206.5776  0.99403297 95946,10.5961,0.0002878,0.99403297,40.0293,354.1977,206.5776
25049,SIRIUS 2 (GE-1E),GEO,24069.35546781,1 25049U 97071A   24069.35546781 -.00000174  00000-0  00000-0 0    11\,2 25049  10.5977  40.0227 0002927 355.1163 187.9074  0.99402993 95870,10.5977,0.0002927,0.99402993,40.0227,355.1163,187.9074
25049,SIRIUS 2 (GE-1E),GEO,24069.85645809,1 25049U 97071A   24069.85645809 -.00000167  00000-0  00000-0 0    19\,2 25049  10.5986  40.0193 0002961 355.6944   6.6147  0.99402813 95882,10.5986,0.0002961,0.99402813,40.0193,355.6944,6.6147
25049,SIRIUS 2 (GE-1E),GEO,24070.33104976,1 25049U 97071A   24070.33104976 -.00000159  00000-0  00000-0 0    10\,2 25049  10.5994  40.0160 0002980 356.1467 176.0019  0.99402694 95889,10.5994,0.000298,0.99402694,40.016,356.1467,176.0019
25049,SIRIUS 2 (GE-1E),GEO,24070.85821793,1 25049U 97071A   24070.85821793 -.00000151  00000-0  00000+0 0  3373\,2 25049  10.6003  40.0123 0003017 356.8136   3.9874  0.99402503 95978,10.6003,0.0003017,0.99402503,40.0123,356.8136,3.9874
25049,SIRIUS 2 (GE-1E),GEO,24071.46775434,1 25049U 97071A   24071.46775434 -.00000141  00000-0  00000-0 0    19\,2 25049  10.6012  40.0082 0003039 357.2446 221.6854  0.99402320 95890,10.6012,0.0003039,0.9940232,40.0082,357.2446,221.6854
25049,SIRIUS 2 (GE-1E),GEO,24072.86189517,1 25049U 97071A   24072.86189517 -.00000119  00000-0  00000+0 0  3382\,2 25049  10.6036  39.9987 0003104 358.6458 359.1931  0.99401978 95990,10.6036,0.0003104,0.99401978,39.9987,358.6458,359.1931
25049,SIRIUS 2 (GE-1E),GEO,24073.36279852,1 25049U 97071A   24073.36279852 -.00000110  00000-0  00000-0 0    19\,2 25049  10.6045  39.9953 0003121 359.0537 178.0380  0.99401863 95916,10.6045,0.0003121,0.99401863,39.9953,359.0537,178.038
25049,SIRIUS 2 (GE-1E),GEO,24073.86354807,1 25049U 97071A   24073.86354807 -.00000102  00000-0  00000-0 0    19\,2 25049  10.6053  39.9920 0003146 359.6003 356.6888  0.99401737 95917,10.6053,0.0003146,0.99401737,39.992,359.6003,356.6888
25049,SIRIUS 2 (GE-1E),GEO,24074.86528668,1 25049U 97071A   24074.86528668 -.00000085  00000-0  00000+0 0  3391\,2 25049  10.6070  39.9852 0003183   0.5152 354.2532  0.99401508 96016,10.607,0.0003183,0.99401508,39.9852,0.5152,354.2532
25049,SIRIUS 2 (GE-1E),GEO,24075.42827178,1 25049U 97071A   24075.42827178 -.00000075  00000-0  00000-0 0    18\,2 25049  10.6080  39.9814 0003206   1.0210 195.2171  0.99401447 95936,10.608,0.0003206,0.99401447,39.9814,1.021,195.2171
25049,SIRIUS 2 (GE-1E),GEO,24076.43935483,1 25049U 97071A   24076.43935483 -.00000058  00000-0  00000-0 0    10\,2 25049  10.6098  39.9746 0003241   1.9300 196.1309  0.99401282 95948,10.6098,0.0003241,0.99401282,39.9746,1.93,196.1309
25049,SIRIUS 2 (GE-1E),GEO,24076.94024920,1 25049U 97071A   24076.94024920 -.00000050  00000-0  00000+0 0  3408\,2 25049  10.6106  39.9712 0003255   2.4903  14.8176  0.99401177 96033,10.6106,0.0003255,0.99401177,39.9712,2.4903,14.8176
25049,SIRIUS 2 (GE-1E),GEO,24077.41160365,1 25049U 97071A   24077.41160365 -.00000042  00000-0  00000-0 0    11\,2 25049  10.6114  39.9681 0003274   2.8589 183.1270  0.99401155 95953,10.6114,0.0003274,0.99401155,39.9681,2.8589,183.127
25049,SIRIUS 2 (GE-1E),GEO,24077.87053219,1 25049U 97071A   24077.87053219 -.00000034  00000-0  00000-0 0    11\,2 25049  10.6122  39.9650 0003285   3.2301 346.9871  0.99401127 95952,10.6122,0.0003285,0.99401127,39.965,3.2301,346.9871
25049,SIRIUS 2 (GE-1E),GEO,24078.45674472,1 25049U 97071A   24078.45674472 -.00000024  00000-0  00000-0 0    15\,2 25049  10.6132  39.9611 0003305   3.6878 196.3093  0.99401100 95961,10.6132,0.0003305,0.994011,39.9611,3.6878,196.3093
25049,SIRIUS 2 (GE-1E),GEO,24078.94375991,1 25049U 97071A   24078.94375991 -.00000016  00000-0  00000-0 0    14\,2 25049  10.6141  39.9578 0003317   4.1400  10.1367  0.99401029 95971,10.6141,0.0003317,0.99401029,39.9578,4.14,10.1367
25049,SIRIUS 2 (GE-1E),GEO,24080.43857726,1 25049U 97071A   24080.43857726  .00000009  00000-0  00000-0 0    13\,2 25049  10.6167  39.9478 0003359   5.1948 184.0118  0.99401047 95988,10.6167,0.0003359,0.99401047,39.9478,5.1948,184.0118
25049,SIRIUS 2 (GE-1E),GEO,24081.43796361,1 25049U 97071A   24081.43796361  .00000025  00000-0  00000-0 0    19\,2 25049  10.6185  39.9412 0003382   5.8398 181.0036  0.99401107 95992,10.6185,0.0003382,0.99401107,39.9412,5.8398,181.0036
25049,SIRIUS 2 (GE-1E),GEO,24082.47848909,1 25049U 97071A   24082.47848909  .00000041  00000-0  00000-0 0    18\,2 25049  10.6204  39.9344 0003407   6.5112 192.6901  0.99401190 96002,10.6204,0.0003407,0.9940119,39.9344,6.5112,192.6901
25049,SIRIUS 2 (GE-1E),GEO,24083.95244903,1 25049U 97071A   24083.95244903  .00000062  00000-0  00000+0 0  3448\,2 25049  10.6230  39.9249 0003455   7.7018 358.9628  0.99401332 96108,10.623,0.0003455,0.99401332,39.9249,7.7018,358.9628
25049,SIRIUS 2 (GE-1E),GEO,24086.50467222,1 25049U 97071A   24086.50467222  .00000087  00000-0  00000-0 0    11\,2 25049  10.6276  39.9085 0003525   9.1215 190.8767  0.99401932 96045,10.6276,0.0003525,0.99401932,39.9085,9.1215,190.8767
25049,SIRIUS 2 (GE-1E),GEO,24087.53496840,1 25049U 97071A   24087.53496840  .00000093  00000-0  00000-0 0    10\,2 25049  10.6294  39.9019 0003549   9.5823 199.1163  0.99402217 96057,10.6294,0.0003549,0.99402217,39.9019,9.5823,199.1163
25049,SIRIUS 2 (GE-1E),GEO,24088.49787970,1 25049U 97071A   24088.49787970  .00000095  00000-0  00000-0 0    15\,2 25049  10.6311  39.8957 0003585  10.1913 183.0953  0.99402537 96060,10.6311,0.0003585,0.99402537,39.8957,10.1913,183.0953
25049,SIRIUS 2 (GE-1E),GEO,24089.50099521,1 25049U 97071A   24089.50099521  .00000095  00000-0  00000-0 0    16\,2 25049  10.6328  39.8891 0003619  10.7475 181.5156  0.99402893 96076,10.6328,0.0003619,0.99402893,39.8891,10.7475,181.5156
25049,SIRIUS 2 (GE-1E),GEO,24090.59117723,1 25049U 97071A   24090.59117723  .00000092  00000-0  00000-0 0    19\,2 25049  10.6347  39.8819 0003662  11.4451 210.9538  0.99403304 96087,10.6347,0.0003662,0.99403304,39.8819,11.4451,210.9538
25049,SIRIUS 2 (GE-1E),GEO,24091.53832057,1 25049U 97071A   24091.53832057  .00000086  00000-0  00000-0 0    11\,2 25049  10.6364  39.8755 0003697  11.9453 189.4022  0.99403673 96098,10.6364,0.0003697,0.99403673,39.8755,11.9453,189.4022
25049,SIRIUS 2 (GE-1E),GEO,24092.48081671,1 25049U 97071A   24092.48081671  .00000078  00000-0  00000-0 0    15\,2 25049  10.6380  39.8692 0003736  12.4882 166.1468  0.99404074 96106,10.638,0.0003736,0.99404074,39.8692,12.4882,166.1468
25049,SIRIUS 2 (GE-1E),GEO,24093.53105010,1 25049U 97071A   24093.53105010  .00000066  00000-0  00000-0 0    13\,2 25049  10.6399  39.8620 0003786  13.1589 181.3198  0.99404504 96112,10.6399,0.0003786,0.99404504,39.862,13.1589,181.3198
25049,SIRIUS 2 (GE-1E),GEO,24094.21896622,1 25049U 97071A   24094.21896622  .00000057  00000-0  00000+0 0  3488\,2 25049  10.6411  39.8574 0003823  13.4875  67.1756  0.99404817 96206,10.6411,0.0003823,0.99404817,39.8574,13.4875,67.1756
25049,SIRIUS 2 (GE-1E),GEO,24094.54172147,1 25049U 97071A   24094.54172147  .00000053  00000-0  00000-0 0    16\,2 25049  10.6416  39.8552 0003832  13.8514 182.3165  0.99404973 96129,10.6416,0.0003832,0.99404973,39.8552,13.8514,182.3165
25049,SIRIUS 2 (GE-1E),GEO,24095.54332417,1 25049U 97071A   24095.54332417  .00000038  00000-0  00000-0 0    18\,2 25049  10.6434  39.8485 0003882  14.5319 180.0813  0.99405436 96131,10.6434,0.0003882,0.99405436,39.8485,14.5319,180.0813
25049,SIRIUS 2 (GE-1E),GEO,24096.46818861,1 25049U 97071A   24096.46818861  .00000023  00000-0  00000+0 0  3490\,2 25049  10.6450  39.8423 0003930  15.2036 150.3926  0.99405833 96225,10.645,0.000393,0.99405833,39.8423,15.2036,150.3926
25049,SIRIUS 2 (GE-1E),GEO,24096.54494137,1 25049U 97071A   24096.54494137  .00000022  00000-0  00000-0 0    10\,2 25049  10.6451  39.8418 0003931  15.2622 177.8022  0.99405878 96143,10.6451,0.0003931,0.99405878,39.8418,15.2622,177.8022
25049,SIRIUS 2 (GE-1E),GEO,24096.61716201,1 25049U 97071A   24096.61716201  .00000021  00000-0  00000-0 0    16\,2 25049  10.6452  39.8413 0003933  15.2991 203.6113  0.99405909 96144,10.6452,0.0003933,0.99405909,39.8413,15.2991,203.6113
